ONEWEB-0029             
1 45445U 20020X   24328.39604380  .00000840  00000+0  23332-2 0  9994
2 45445  87.8873 134.7840 0001566  77.6591 282.4712 13.11418434227855
ONEWEB-0068             
1 45446U 20020Y   24328.44769493  .00000365  00000+0  99515-3 0  9997
2 45446  87.8883 134.7624 0001663  86.5016 273.6302 13.11419229227801
ONEWEB-0046             
1 45447U 20020Z   24327.52960644  .00000403  00000+0  11002-2 0  9994
2 45447  87.8885 134.9575 0001735  96.8699 263.2627 13.11418180227699
ONEWEB-0063             
1 45448U 20020AA  24328.39769679  .00000234  00000+0  62533-3 0  9994
2 45448  87.8882 134.7839 0001543 100.8860 259.2442 13.11414274227882
ONEWEB-0019             
1 45449U 20020AB  24328.44856208  .00000440  00000+0  12051-2 0  9994
2 45449  87.8889 134.7831 0001359  92.1110 268.0174 13.11417322227740
ONEWEB-0094             
1 45450U 20020AC  24327.93753260  .00000111  00000+0  25284-3 0  9991
2 45450  87.9072 119.6376 0001585  90.4730 269.6583 13.17648221231086
ONEWEB-0087             
1 45451U 20020AD  24327.49214611 -.00000075  00000+0 -24846-3 0  9999
2 45451  87.8870 134.9273 0001903  92.6590 267.4756 13.11413562227658
ONEWEB-0082             
1 45452U 20020AE  24327.87038614  .00000094  00000+0  22855-3 0  9996
2 45452  87.8888 134.8669 0001684  91.0231 269.1090 13.11415641227792
ONEWEB-0050             
1 45453U 20020AF  24327.53658353  .00005910  00000+0  57523-3 0  9990
2 45453  88.0027 348.0058 0001783 154.0603 206.0716 14.92393781255218
ONEWEB-0034             
1 45454U 20020AG  24327.51094104 -.00000258  00000+0 -76305-3 0  9998
2 45454  87.8880 134.9549 0002079 100.1076 260.0287 13.11417178227663
ONEWEB-0060             
1 45455U 20020AH  24328.46902429  .00000406  00000+0  11105-2 0  9991
2 45455  87.8884 134.7852 0001526  95.8878 264.2423 13.11417475227757
ONEWEB-0086             
1 45456U 20020AJ  24327.61268060  .00000594  00000+0  16394-2 0  9997
2 45456  87.8878 134.9345 0001940  87.0894 273.0456 13.11417869227695
ONEWEB-0088             
1 45457U 20020AK  24327.51433149 -.00000174  00000+0 -52666-3 0  9998
2 45457  87.8871 134.9117 0001677  93.3953 266.7367 13.11419562227613
ONEWEB-0102             
1 47258U 20100A   24327.43227867 -.00000033  00000+0 -12687-3 0  9990
2 47258  87.8856 104.5398 0001346  97.5641 262.5641 13.12442621189736
ONEWEB-0109             
1 47259U 20100B   24327.44038926  .00000269  00000+0  71141-3 0  9997
2 47259  87.8859 104.5053 0001363  95.5289 264.5995 13.12444502189568
ONEWEB-0110             
1 47260U 20100C   24328.38118773  .00000469  00000+0  12670-2 0  9995
2 47260  87.8858 104.3142 0001403  88.8941 271.2348 13.12440338189853
ONEWEB-0111             
1 47261U 20100D   24327.80208919 -.00000671  00000+0 -18997-2 0  9999
2 47261  87.8848 104.4314 0001356  92.4993 267.6291 13.12443749189619
ONEWEB-0114             
1 47262U 20100E   24327.45173480 -.00000973  00000+0 -27398-2 0  9995
2 47262  87.8883 104.5159 0001913 115.7818 244.3508 13.12448929189529
ONEWEB-0117             
1 47263U 20100F   24328.35848279  .00000209  00000+0  54487-3 0  9991
2 47263  87.8864 104.3137 0001531  96.6424 263.4879 13.12442127189650
ONEWEB-0118             
1 47264U 20100G   24327.39983501 -.00000005  00000+0 -48113-4 0  9999
2 47264  87.8867 104.5083 0001334 108.4955 251.6319 13.12440922189725
ONEWEB-0119             
1 47265U 20100H   24327.80859975 -.00000172  00000+0 -51316-3 0  9996
2 47265  87.8857 104.4646 0001448  95.3991 264.7303 13.12442867189750
ONEWEB-0120             
1 47266U 20100J   24327.83145100  .00000409  00000+0  11012-2 0  9997
2 47266  87.8854 104.4508 0001287 100.1924 259.9350 13.12440438189780
ONEWEB-0121             
1 47267U 20100K   24327.43877249  .00000166  00000+0  42560-3 0  9993
2 47267  87.8855 104.5124 0001554  90.9234 269.2073 13.12441428189645
ONEWEB-0122             
1 47268U 20100L   24327.43373943 -.00000316  00000+0 -91337-3 0  9991
2 47268  87.8855 104.5185 0001382  93.9572 266.1714 13.12444378189555
ONEWEB-0123             
1 47269U 20100M   24327.42903730 -.00000175  00000+0 -52060-3 0  9997
2 47269  87.8849 104.5374 0001498 101.1243 259.0054 13.12441987189690
ONEWEB-0124             
1 47270U 20100N   24327.41766635 -.00000345  00000+0 -99366-3 0  9998
2 47270  87.8859 104.5383 0001879  96.9136 263.2206 13.12441723189579
ONEWEB-0125             
1 47271U 20100P   24327.47121329  .00000066  00000+0  14776-3 0  9990
2 47271  87.8864 104.4890 0001637  98.8498 261.2816 13.12441232189640
ONEWEB-0126             
1 47272U 20100Q   24327.80127703 -.00000409  00000+0 -11737-2 0  9996
2 47272  87.8859 104.4231 0001419 102.0438 258.0850 13.12440233189758
ONEWEB-0127             
1 47273U 20100R   24327.91565740  .00000631  00000+0  17195-2 0  9995
2 47273  87.8865 104.4344 0001332  99.2104 260.9175 13.12442522189791
ONEWEB-0128             
1 47274U 20100S   24328.39578690  .00000018  00000+0  15292-4 0  9994
2 47274  87.8872 104.3519 0001389  91.2005 268.9282 13.12434551189876
ONEWEB-0129             
1 47275U 20100T   24327.91729413  .00008027  00000+0  22269-1 0  9990
2 47275  87.8865 104.4040 0000843 147.0074 213.1107 13.12405486189748
ONEWEB-0130             
1 47276U 20100U   24327.41117267 -.00000365  00000+0 -10491-2 0  9998
2 47276  87.8862 104.5103 0001367  94.8431 265.2854 13.12439827189647
ONEWEB-0131             
1 47277U 20100V   24327.40792980 -.00000299  00000+0 -86741-3 0  9997
2 47277  87.8870 104.5307 0001504  93.4626 266.6674 13.12439799189684
ONEWEB-0132             
1 47278U 20100W   24327.43712660  .00000162  00000+0  41560-3 0  9995
2 47278  87.8856 104.5249 0001746  94.2050 265.9278 13.12446681189581
ONEWEB-0133             
1 47279U 20100X   24328.36821490  .00000437  00000+0  11805-2 0  9994
2 47279  87.8861 104.3298 0001485  91.7724 268.3575 13.12443700189867
ONEWEB-0134             
1 47280U 20100Y   24327.80372355 -.00000433  00000+0 -12397-2 0  9990
2 47280  87.8857 104.4288 0001457  94.1833 265.9462 13.12444176189766
ONEWEB-0135             
1 47281U 20100Z   24327.39333899  .00000097  00000+0  23480-3 0  9995
2 47281  87.8873 104.5368 0001351  67.6153 292.5119 13.12442803189735
ONEWEB-0136             
1 47282U 20100AA  24327.41280573 -.00000328  00000+0 -94750-3 0  9996
2 47282  87.8866 104.4993 0001064  85.8352 274.2898 13.12443871189664
ONEWEB-0137             
1 47283U 20100AB  24327.44688090  .00000304  00000+0  81070-3 0  9999
2 47283  87.8859 104.5098 0001486 102.8309 257.2986 13.12443512189575
ONEWEB-0138             
1 47284U 20100AC  24327.80695360  .00000036  00000+0  64784-4 0  9994
2 47284  87.8857 104.4492 0001323 100.4060 259.7218 13.12447425189706
ONEWEB-0139             
1 47285U 20100AD  24327.46485038  .00000392  00000+0  10552-2 0  9993
2 47285  87.8865 104.4968 0001468  96.6530 263.4766 13.12443881189737
ONEWEB-0140             
1 47286U 20100AE  24327.41930965 -.00000366  00000+0 -10523-2 0  9994
2 47286  87.8850 104.5021 0001572  99.4463 260.6843 13.12442356189691
ONEWEB-0141             
1 47287U 20100AF  24328.37942863  .00000702  00000+0  19159-2 0  9997
2 47287  87.8859 104.3250 0001536 100.5048 259.6254 13.12440137189808
ONEWEB-0142             
1 47288U 20100AG  24327.43309769 -.00000048  00000+0 -16900-3 0  9993
2 47288  87.8859 104.4949 0001289 104.4641 255.6631 13.12444709189671
ONEWEB-0143             
1 47289U 20100AH  24327.46310190  .00000217  00000+0  56681-3 0  9993
2 47289  87.8862 104.5115 0001355  90.7752 269.3532 13.12442049189651
ONEWEB-0144             
1 47290U 20100AJ  24327.43552788  .00000102  00000+0  24811-3 0  9996
2 47290  87.8861 104.5002 0001325 104.5825 255.5450 13.12442120189576
ONEWEB-0145             
1 47291U 20100AK  24327.40630754 -.00000261  00000+0 -76025-3 0  9996
2 47291  87.8859 104.5301 0001494 101.1709 258.9587 13.12440089189768
ONEWEB-0146             
1 47292U 20100AL  24327.40306845 -.00000387  00000+0 -11111-2 0  9991
2 47292  87.8851 104.5145 0002265  97.8399 262.2987 13.12439875189673
ONEWEB-0147             
1 47293U 20100AM  24327.44526028  .00000293  00000+0  77872-3 0  9994
2 47293  87.8856 104.4950 0001289  86.0800 274.0476 13.12441236189571
ONEWEB-0115             
1 48042U 21025A   24327.38639175  .00000158  00000+0  39875-3 0  9996
2 48042  87.8918  73.9589 0001701 101.0288 259.1033 13.13470761178531
ONEWEB-0152             
1 48043U 21025B   24327.32289138 -.00000026  00000+0 -10587-3 0  9996
2 48043  87.8922  73.9755 0001902 103.6040 256.5301 13.13469389178486
ONEWEB-0153             
1 48044U 21025C   24327.37685649  .00000225  00000+0  58095-3 0  9994
2 48044  87.8940  73.9594 0001539 102.4017 257.7285 13.13470656178488
ONEWEB-0154             
1 48045U 21025D   24327.29750099 -.00003273  00000+0 -90000-2 0  9997
2 48045  87.8940  73.9818 0001254  88.4160 271.7113 13.13477655178431
ONEWEB-0116             
1 48046U 21025E   24327.33875043 -.00000148  00000+0 -43949-3 0  9999
2 48046  87.8924  73.9443 0001908  99.4256 260.7088 13.13470010178585
ONEWEB-0150             
1 48047U 21025F   24327.31336758  .00000013  00000+0  18497-5 0  9994
2 48047  87.8920  73.9594 0001715 109.2379 250.8936 13.13469248178472
ONEWEB-0107             
1 48048U 21025G   24327.69583216 -.00000050  00000+0 -17118-3 0  9999
2 48048  87.8914  73.8793 0001334 107.7867 252.3408 13.13472893178503
ONEWEB-0101             
1 48049U 21025H   24327.35463175  .00000201  00000+0  51638-3 0  9995
2 48049  87.8924  73.9748 0001574 103.0721 257.0584 13.13470096178432
ONEWEB-0113             
1 48050U 21025J   24327.33240797 -.00000247  00000+0 -71071-3 0  9993
2 48050  87.8922  73.9591 0001865 102.7321 257.4017 13.13474084178518
ONEWEB-0112             
1 48051U 21025K   24327.31972229 -.00000232  00000+0 -67014-3 0  9990
2 48051  87.8935  73.9555 0001594 101.7647 258.3661 13.13469262178520
